C/2020 K7 (PANSTARRS),e,32.0411,286.0728,358.2334,101.7816,0.0009598,0.93722972,0.7527,12/21.0/2021,2000,g  8.0,4.0
# From MPEC 2021-P47
C/2020 K8 (Catalina-ATLAS),h,09/14.5472/2020,31.4242,181.5338,260.0156,1.000153,0.473936,2000,15.0,3.2
# From MPEC 2021-BE3
P/2020 K9 (Lemmon-PANSTARRS),e,23.2098,166.2399,196.9217,4.199568,0.1145242,0.32140468,35.7324,12/21.0/2021,2000,g 12.5,4.0
# From MPEC 2021-U31
P/2020 M1 (PANSTARRS),e,8.6463,142.8424,71.2284,5.274999,0.0813524,0.48176901,58.6609,12/21.0/2021,2000,g 14.5,4.0
# From MPEC 2021-N06
C/2020 M3 (ATLAS),e,23.4716,71.2290,328.4680,26.92675,0.0070539,0.95290665,2.9720,12/21.0/2021,2000,g 14.5,4.0
# From MPEC 2021-R75
A/2020 M4,e,160.1273,348.6220,104.6527,195921,0.0000000,0.99996962,0.0000,11/24.0795/2020,2000,g 14.5,2.0
# From MPEC 2021-Y10
C/2020 M5 (ATLAS),h,08/19.8756/2021,93.2239,352.0939,126.3368,1.000207,3.004320,2000,9.0,4.0
# From MPEC 2021-N06
C/2020 N1 (PANSTARRS),h,03/12.2178/2021,29.7042,279.9739,186.7625,1.000498,1.320423,2000,12.5,4.0
# From MPEC 2021-P47
C/2020 N2 (ATLAS),e,161.0350,257.0954,331.2651,102.6446,0.0009478,0.98251884,0.0000,08/23.7629/2020,2000,g 16.0,3.2
# From MPEC 2020-SI8
P/2020 O1 (Lemmon-PANSTARRS),e,5.2259,175.9762,104.5318,2.644643,0.2291677,0.11936989,136.9071,12/21.0/2021,2000,g 15.5,4.0
# From MPEC 2021-W31
C/2020 O2 (Amaral),h,08/28.5879/2021,71.7500,256.7567,10.3057,1.002388,4.862212,2000,8.0,3.2
# From MPEC 2020-SI8
P/2020 O3 (PANSTARRS),e,8.4418,266.8316,81.5948,4.651173,0.0982563,0.10407987,31.8959,12/21.0/2021,2000,g 12.0,4.0
# From MPEC 2021-BE3
C/2020 P1 (NEOWISE),h,10/20.1994/2020,45.0838,53.5199,8.8891,1.000269,0.341824,2000,14.0,3.2
# From MPEC 2021-Y10
C/2020 P3 (ATLAS),e,61.8856,19.4761,82.2506,18991,0.0000004,0.99964129,0.0000,04/20.8690/2021,2000,g  6.0,4.0
# From MPEC 2021-W31
C/2020 PV6 (PANSTARRS),e,128.2392,329.1444,71.3834,41.75592,0.0036528,0.94502207,0.3141,12/21.0/2021,2000,g 10.0,4.0
# From MPEC 2021-N06
C/2020 Q1 (Borisov),e,142.9159,52.4159,9.9015,58.71268,0.0021908,0.97760388,0.0000,08/14.5830/2020,2000,g 14.0,4.0
# From MPEC 2021-Y10
C/2020 R2 (PANSTARRS),e,53.2272,195.0928,211.7313,412.0077,0.0001179,0.98861212,0.0000,02/24.4652/2022,2000,g  9.0,4.0
# From MPEC 2021-S45
C/2020 R4 (ATLAS),e,164.4629,323.2739,46.7208,98.48639,0.0010084,0.98955513,0.0000,03/01.9568/2021,2000,g 13.5,4.0
# From MPEC 2020-W26
P/2020 R5 (PANSTARRS),e,11.4521,272.9767,82.4369,4.982660,0.0886160,0.31471798,50.6119,12/21.0/2021,2000,g  9.5,6.0
# From MPEC 2021-Y10
C/2020 R6 (Rankin),e,82.8109,12.1776,272.0058,359.7015,0.0001445,0.99129503,0.0000,09/09.6387/2019,2000,g 11.0,4.0
# From MPEC 2021-Y10
C/2020 R7 (ATLAS),e,114.8923,268.2790,347.8268,34844,0.0000002,0.99991516,0.0000,09/16.2091/2022,2000,g  7.0,3.2
# From MPEC 2021-BE3
P/2020 S1 (PANSTARRS),e,13.7336,129.4606,254.9202,5.984732,0.0673189,0.50746474,22.7449,12/21.0/2021,2000,g 14.0,4.0
# From MPEC 2021-BE3
C/2020 S2 (PANSTARRS),e,22.3989,197.6739,202.2906,10.19711,0.0302683,0.82778227,11.0180,12/21.0/2021,2000,g 17.0,4.0
# From MPEC 2021-WD8
C/2020 S3 (Erasmus),e,19.9088,222.8463,349.9557,181.3066,0.0004037,0.99780854,0.0000,12/12.6864/2020,2000,g 13.5,3.2
# From MPEC 2021-Y10
C/2020 S4 (PANSTARRS),h,02/09.3615/2023,20.5735,117.7194,21.0158,1.000363,3.369309,2000,8.5,3.2
# From MPEC 2021-BE3
P/2020 S5 (PANSTARRS),e,12.3534,316.0009,53.0925,4.051128,0.1208760,0.33858605,60.3540,12/21.0/2021,2000,g 14.5,4.0
# From MPEC 2021-P47
P/2020 S6 (Leonard),e,15.4592,242.5559,176.6669,3.600035,0.1442925,0.47929442,56.6128,12/21.0/2021,2000,g 16.0,4.0
# From MPEC 2021-BE3
P/2020 S7 (PANSTARRS),e,16.0919,328.0191,40.4643,5.025411,0.0874876,0.41066221,34.7913,12/21.0/2021,2000,g 14.5,4.0
# From MPEC 2021-P47
C/2020 S8 (Lemmon),e,108.5238,24.0548,160.3318,276.2789,0.0002146,0.99144441,0.0000,04/10.9253/2021,2000,g 12.5,4.0
# From MPEC 2021-WD8
C/2020 T2 (Palomar),e,27.8716,83.0469,150.3941,313.7824,0.0001773,0.99345155,0.0000,07/11.1684/2021,2000,g 11.0,3.2
# From MPEC 2021-N06
P/2020 T3 (PANSTARRS),e,7.2955,74.0096,357.0381,3.517478,0.1494022,0.59167461,49.9779,12/21.0/2021,2000,g 18.0,3.2
# From MPEC 2021-N06
C/2020 T4 (PANSTARRS),h,07/05.2597/2021,83.8155,50.6171,79.6094,1.000075,2.191872,2000,13.0,3.2
# From MPEC 2021-BE3
C/2020 T5 (Lemmon),e,66.5914,237.8602,90.3061,834.9767,0.0000409,0.99773718,0.0000,10/09.6133/2020,2000,g 16.0,4.0
# From MPEC 2021-N06
P/2020 U2 (PANSTARRS),e,6.4212,342.8993,84.6415,3.778043,0.1342158,0.51071465,48.3546,12/21.0/2021,2000,g 18.0,4.0
# From MPEC 2021-W31
C/2020 U3 (Rankin),e,30.1728,282.6780,124.2744,65.49059,0.0018597,0.96524332,0.5913,12/21.0/2021,2000,g 15.0,4.0
# From MPEC 2021-Y10
C/2020 U4 (PANSTARRS),h,04/07.9030/2022,167.0361,120.0153,69.5264,1.001504,5.353731,2000,7.0,4.0
# From MPEC 2021-Y10
C/2020 U5 (PANSTARRS),e,97.2714,107.3383,75.4144,6358,0.0000019,0.99940926,0.0000,04/27.8715/2022,2000,g  8.0,4.0
# From MPEC 2021-Y10
C/2020 V2 (ZTF),h,05/08.4894/2023,131.6081,212.3596,162.3978,1.001228,2.228317,2000,4.9,4.0
# From MPEC 2021-N06
P/2020 V3 (PANSTARRS),e,23.0315,198.2648,249.3232,8.370349,0.0406995,0.25568561,12.8389,12/21.0/2021,2000,g  8.3,4.0
# From MPEC 2021-Y10
P/2020 V4 (Rankin),e,14.2429,203.4981,256.9906,9.349374,0.0344771,0.44931638,5.3859,12/21.0/2021,2000,g  9.0,4.0
# From MPEC 2021-BE3
P/2020 W1 (Rankin),e,10.7913,124.2628,264.8930,7.203487,0.0509788,0.26582264,31.8264,12/21.0/2021,2000,g 10.0,4.0
# From MPEC 2021-BE3
C/2020 W5 (Lemmon),h,11/30.0814/2020,88.5832,75.5018,24.4801,1.000776,3.364274,2000,15.0,4.0
# From MPEC 2021-P47
P/2020 X1 (ATLAS),e,31.6951,56.0191,323.2872,4.527113,0.1023227,0.36549907,53.0605,12/21.0/2021,2000,g 13.0,4.0
# From MPEC 2021-U31
C/2020 X2 (ATLAS),e,18.1889,105.4537,347.3395,16.40917,0.0148277,0.76671234,5.9339,12/21.0/2021,2000,g 10.6,4.0
# From MPEC 2021-S45
C/2020 X4 (Leonard),e,80.6214,161.8890,140.2237,43.29104,0.0034602,0.87956280,1.3810,12/21.0/2021,2000,g  9.0,4.0
# From MPEC 2021-Y10
C/2020 Y2 (ATLAS),e,101.2959,26.5110,266.0990,1174,0.0000245,0.99733204,0.0000,06/17.6693/2022,2000,g  6.5,4.0
# From MPEC 2021-R75
C/2020 Y3 (ATLAS),e,83.1010,191.4337,342.0266,148.5057,0.0005446,0.98653989,0.0000,12/03.4487/2020,2000,g 13.5,4.0
# From MPEC 2021-XG5
C/2021 A1 (Leonard),h,01/03.2998/2022,132.6866,255.8963,225.0932,1.000025,0.615248,2000,8.5,4.0
# From MPEC 2021-U31
C/2021 A2 (NEOWISE),e,106.9775,125.2344,338.8299,249.1419,0.0002506,0.99432979,0.0000,01/22.6080/2021,2000,g 13.5,4.0
# From MPEC 2021-R75
C/2021 A4 (NEOWISE),e,111.5654,307.0906,204.6830,43.01872,0.0034932,0.97336096,0.0000,03/20.0252/2021,2000,g 16.0,4.0
# From MPEC 2021-BE3
P/2021 A5 (PANSTARRS),e,18.1879,328.7676,61.1777,3.046886,0.1853189,0.13979240,74.8997,12/21.0/2021,2000,g 15.0,4.0
# From MPEC 2021-P47
C/2021 A6 (PANSTARRS),e,75.6130,164.0791,351.7242,12012,0.0000007,0.99933995,0.0000,05/04.6365/2021,2000,g  7.0,4.0
# From MPEC 2021-W31
C/2021 A7 (NEOWISE),e,78.1496,154.5189,356.0538,5183,0.0000026,0.99962035,0.0000,07/15.3061/2021,2000,g 10.0,4.0
# From MPEC 2021-P47
C/2021 A9 (PANSTARRS),h,12/01.4095/2023,158.0277,314.8414,211.4666,1.004064,7.758949,2000,6.0,4.0
# From MPEC 2021-N06
C/2021 A10 (NEOWISE),e,151.5396,188.3533,82.3127,94.93042,0.0010656,0.98662810,0.0000,03/15.2905/2021,2000,g 19.0,4.0
# From MPEC 2021-O56
C/2021 B2 (PANSTARRS),e,38.0919,120.5541,334.9651,348.8673,0.0001513,0.99279675,0.0000,05/04.2598/2021,2000,g 14.0,4.0
# From MPEC 2021-N06
C/2021 B3 (NEOWISE),e,119.4836,67.2868,293.5550,34.88198,0.0047841,0.93807283,1.3640,12/21.0/2021,2000,g 13.5,4.0
# From MPEC 2021-P47
C/2021 C1 (Rankin),e,143.0433,186.8951,336.3055,64025,0.0000001,0.99994563,0.0000,12/07.1260/2020,2000,g 11.5,4.0
# From MPEC 2021-U31
P/2021 C2 (PANSTARRS),e,21.9277,66.4829,78.7847,9.536829,0.0334656,0.48726522,10.0342,12/21.0/2021,2000,g 12.0,4.0
# From MPEC 2021-N06
C/2021 C3 (Catalina),e,122.1643,181.9244,357.1381,63.14014,0.0019645,0.96395071,0.6121,12/21.0/2021,2000,g 14.0,4.0
# From MPEC 2021-P47
C/2021 C4 (ATLAS),e,132.8479,194.2754,320.2349,13092,0.0000007,0.99965596,0.0000,01/17.1125/2021,2000,g  9.0,4.0
# From MPEC 2021-Y10
C/2021 C5 (PANSTARRS),e,50.7858,323.6905,270.9175,4579,0.0000032,0.99929204,0.0000,02/11.0426/2023,2000,g  9.0,4.0
# From MPEC 2021-Y10
C/2021 C6 (Lemmon),h,11/13.3211/2021,164.6258,332.1558,203.5614,1.001743,3.271219,2000,12.0,4.0
# From MPEC 2021-N06
C/2021 D1 (SWAN),e,31.4581,311.2702,72.2310,97.72429,0.0010202,0.99077173,0.0000,02/27.6276/2021,2000,g 13.0,4.0
# From MPEC 2021-Y10
C/2021 D2 (ZTF),h,02/03.9819/2022,83.8310,305.6780,125.0300,1.001383,2.946290,2000,9.0,4.0
# From MPEC 2021-N06
A/2021 E2,e,167.4881,190.8166,342.4567,235.6108,0.0002725,0.99028964,0.0000,12/10.4700/2020,2000,g 15.0,2.0
# From MPEC 2021-Y10
C/2021 E3 (ZTF),h,06/11.9065/2022,112.5585,104.4675,228.8445,1.000843,1.777443,2000,8.5,4.0
# From MPEC 2021-P47
A/2021 E4,e,116.3609,171.1734,48.2802,708.2284,0.0000523,0.99339759,0.0000,04/25.3425/2022,2000,g 13.5,2.0
# From MPEC 2021-Y10
A/2021 F1,e,107.3241,203.4511,146.8212,236.5207,0.0002710,0.99579105,0.0000,04/06.8734/2022,2000,g 17.5,2.0
# From MPEC 2021-J72
C/2021 G1 (Leonard),e,131.5641,270.6962,107.4778,75.16247,0.0015125,0.95445059,0.2296,12/21.0/2021,2000,g 14.0,4.0
# From MPEC 2021-Y10
C/2021 G2 (ATLAS),e,48.4734,221.1250,343.3754,3786,0.0000042,0.99868523,0.0000,09/10.0659/2024,2000,g  5.5,4.0
# From MPEC 2021-M86
C/2021 G3 (PANSTARRS),h,10/18.5837/2021,102.8823,147.4185,10.6454,1.001049,5.181121,2000,10.5,4.0
# From MPEC 2021-Y10
P/2021 HS (PANSTARRS),e,12.1711,262.3905,46.0856,4.194656,0.1147254,0.81012698,15.6733,12/21.0/2021,2000,g 22.0,4.0
# From MPEC 2021-R75
C/2021 J1 (Maury-Attard),e,92.7089,88.3164,147.3037,26.21963,0.0073412,0.93362333,2.2359,12/21.0/2021,2000,g 15.5,4.0
# From MPEC 2021-R75
C/2021 J2 (PANSTARRS),e,156.2087,23.3289,172.0564,117.5663,0.0007732,0.95996563,0.0692,12/21.0/2021,2000,g 12.0,4.0
# From MPEC 2021-S45
P/2021 J3 (ATLAS),e,14.5534,111.2141,125.9276,8.941322,0.0368639,0.45040829,33.1780,12/21.0/2021,2000,g  7.0,4.0
